94P/Russell,e,6.1858,70.8880,92.7814,3.509396,0.1499186,0.36455984,320.3129,02/06.0/2016,2000,g  9.0,6.0
# From MPC 75717
95P/Chiron,e,6.9451,209.2294,339.4730,13.63731,0.0195709,0.38272092,142.6337,02/06.0/2016,2000,g  6.3,2.0
# From NK 2733
96P/Machholz,e,58.2004,94.2875,14.7826,3.034438,0.1864604,0.95919825,242.5381,02/06.0/2016,2000,g 13.0,4.8
# From MPC 77020
97P/Metcalf-Brewington,e,17.8655,185.1891,228.2795,4.799667,0.0937319,0.45710160,152.9943,02/06.0/2016,2000,g  5.5,6.0
# From MPC 83523
98P/Takamizawa,e,10.5456,114.7293,157.8104,3.805157,0.1327838,0.56079957,121.4508,02/06.0/2016,2000,g  9.0,8.0
# From MPC 75718
99P/Kowal,e,4.3390,28.1819,174.2773,6.130592,0.0649307,0.23051141,213.7585,02/06.0/2016,2000,g  4.5,6.0
# From MPC 84321
100P/Hartley,e,25.5883,37.7254,181.8590,3.428430,0.1552606,0.41356166,351.3027,02/06.0/2016,2000,g  9.0,8.0
# From MPC 75718
101P/Chernykh,e,5.0477,116.2718,277.6863,5.789305,0.0707562,0.59539429,258.3592,02/06.0/2016,2000,g 10.0,4.8
# From MPC 86232
102P/Shoemaker,e,26.2948,339.7441,20.2708,3.779555,0.1341353,0.46759274,119.1084,02/06.0/2016,2000,g  6.5,8.0
# From NK 2714
103P/Hartley,e,13.5949,219.7319,181.3151,3.476324,0.1520631,0.69345397,293.1665,02/06.0/2016,2000,g  8.5,8.0
# From MPEC 2016-B13
104P/Kowal,e,10.2519,235.4394,200.6576,3.262178,0.1672794,0.63849977,351.4411,02/06.0/2016,2000,g 16.0,4.0
# From MPC 94676
105P/Singer Brewster,e,9.1765,192.4296,46.5131,3.466674,0.1526984,0.40976244,220.0068,02/06.0/2016,2000,g 11.5,6.0
# From MPC 92276
106P/Schuster,e,20.1803,50.3669,355.9836,3.755066,0.1354496,0.58925569,76.6150,02/06.0/2016,2000,g 14.0,4.8
# From MPC 94676
107P/Wilson-Harrington,e,2.7681,269.0788,92.7804,2.638783,0.2299316,0.62726712,167.4008,02/06.0/2016,2000,g 16.0,2.0
# From MPC 89313
108P/Ciffreo,e,13.1117,53.4925,358.2167,3.743751,0.1360641,0.54424612,64.6658,02/06.0/2016,2000,g  8.0,12.0
# From ICA 105, 420
109P/Swift-Tuttle,e,112.9969,139.8363,153.1188,26.12770,0.0073799,0.96373155,62.4312,02/06.0/2016,2000,g  4.5,6.0
# From MPC 91618
110P/Hartley,e,11.6827,287.6451,167.6517,3.612015,0.1435753,0.31531767,59.6741,02/06.0/2016,2000,g  1.0,12.0
# From MPC 75718
111P/Helin-Roman-Crockett,e,4.2285,89.7672,1.9493,4.139124,0.1170419,0.10558657,130.1656,02/06.0/2016,2000,g  5.0,8.0
# From MPC 69910
112P/Urata-Niijima,e,24.2045,31.9096,21.3900,3.530240,0.1485928,0.58780795,142.2294,02/06.0/2016,2000,g 14.0,6.0
# From MPC 92984
113P/Spitaler,e,5.7766,14.3758,50.0913,3.685299,0.1393141,0.42495543,40.1312,02/06.0/2016,2000,g 13.5,4.0
# From MPC 82722
114P/Wiseman-Skiff,e,18.2806,271.0619,172.8730,3.543757,0.1477434,0.55480996,147.5178,02/06.0/2016,2000,g 11.5,6.0
# From MPC 76027
115P/Maury,e,11.6714,176.0491,121.0856,4.271728,0.1116346,0.51771403,177.1519,02/06.0/2016,2000,g 10.5,6.0
# From MPC 94284
116P/Wild,e,3.6086,20.9886,173.3127,3.484768,0.1515107,0.37238511,3.8618,02/06.0/2016,2000,g  2.5,10.0
# From MPC 95735
117P/Helin-Roman-Alu,e,8.6985,58.8765,222.5751,4.094752,0.1189495,0.25401056,81.0435,02/06.0/2016,2000,g  2.5,8.0
# From MPC 95735
118P/Shoemaker-Levy,e,8.5143,151.7275,302.3287,3.462609,0.1529674,0.42815623,339.8166,02/06.0/2016,2000,g 12.0,4.0
# From MPC 84628
119P/Parker-Hartley,e,5.1961,243.0256,182.2245,4.292437,0.1108277,0.29792212,74.5780,02/06.0/2016,2000,g  3.5,8.0
# From MPC 80901
120P/Mueller,e,8.8845,3.8739,29.2386,4.104137,0.1185418,0.34677446,127.8619,02/06.0/2016,2000,g 12.0,4.0
# From MPC 75718
121P/Shoemaker-Holt,e,20.1533,94.1538,11.6365,4.594630,0.1000756,0.18343716,88.8370,02/06.0/2016,2000,g  6.5,8.0
# From MPC 75718
122P/de Vico,e,85.2077,79.5831,13.0435,17.66525,0.0132747,0.96265074,98.5040,02/06.0/2016,2000,g  7.5,5.2
# From MPC 79345
123P/West-Hartley,e,15.3558,46.5168,102.9419,3.860354,0.1299462,0.44927349,217.7742,02/06.0/2016,2000,g  4.0,10.0
# From MPC 87068
124P/Mrkos,e,31.5325,0.4022,183.7667,3.318139,0.1630656,0.50401809,108.8046,02/06.0/2016,2000,g 13.5,2.8
# From MPC 94676
125P/Spacewatch,e,9.9881,153.1959,87.1405,3.125293,0.1783890,0.51289173,193.3331,02/06.0/2016,2000,g 13.0,6.0
# From MPC 66205
126P/IRAS,e,45.7780,357.8193,356.6538,5.642025,0.0735447,0.69516442,160.2835,02/06.0/2016,2000,g  6.0,8.0
# From MPC 84321
127P/Holt-Olmstead,e,14.3025,13.6494,6.7060,3.450269,0.1537887,0.36065933,353.7244,02/06.0/2016,2000,g 11.0,6.0
# From MPC 75719
128P-B/Shoemaker-Holt,e,4.3639,214.2939,210.5807,4.503393,0.1031322,0.32146327,324.9583,02/06.0/2016,2000,g  8.5,4.0
# From MPC 82322
129P/Shoemaker-Levy,e,3.4443,184.8953,308.9637,4.276763,0.1114375,0.08494047,81.2747,02/06.0/2016,2000,g 11.0,4.0
# From MPC 78188
130P/McNaught-Hughes,e,6.0348,71.3142,244.3158,3.398686,0.1573032,0.46301616,247.9011,02/06.0/2016,2000,g 10.0,6.0
# From MPC 76027
131P/Mueller,e,7.3545,214.1967,179.1556,3.678783,0.1396844,0.34274667,208.5929,02/06.0/2016,2000,g 11.0,4.0
# From MPC 92985
132P/Helin-Roman-Alu,e,5.8480,178.1458,221.2636,4.088574,0.1192192,0.53667407,74.2738,02/06.0/2016,2000,g 11.0,6.0
# From MPC 94676
133P/Elst-Pizarro,e,1.3873,160.1375,131.9639,3.160102,0.1754496,0.16056893,191.9264,02/06.0/2016,2000,g 15.4,2.0
# From MPC 89012
134P/Kowal-Vavrova,e,4.3490,202.0949,18.6360,6.239879,0.0632324,0.58791288,39.5410,02/06.0/2016,2000,g 11.5,4.0
# From MPC 92985
135P/Shoemaker-Levy,e,6.0617,213.0877,21.9929,3.803724,0.1328589,0.29551087,61.2800,02/06.0/2016,2000,g  7.0,8.0
# From MPC 84321
136P/Mueller,e,9.4160,137.4530,225.1812,4.203184,0.1143764,0.29122731,346.8165,02/06.0/2016,2000,g 11.0,4.0
# From MPC 75719
137P/Shoemaker-Levy,e,4.8502,233.0740,140.9788,4.518130,0.1026280,0.57204326,253.0586,02/06.0/2016,2000,g 11.0,4.0
# From MPC 65938
138P/Shoemaker-Levy,e,10.0844,309.3736,95.5992,3.622267,0.1429662,0.52959069,190.9528,02/06.0/2016,2000,g 15.0,6.0
# From MPC 89012
139P/Vaisala-Oterma,e,2.3325,242.2413,166.1633,4.529059,0.1022568,0.24644266,291.0224,02/06.0/2016,2000,g  9.5,4.0
# From MPC 92985
140P/Bowell-Skiff,e,3.8211,343.3938,172.9252,6.448815,0.0601844,0.69177484,10.9180,02/06.0/2016,2000,g 11.5,6.0
# From MPC 94284
141P/Machholz,e,12.8089,246.0021,149.5107,3.022409,0.1875747,0.74821754,30.9414,02/06.0/2016,2000,g 12.0,12.0
# From MPC 71683
142P/Ge-Wang,e,12.3507,176.4715,175.1955,4.949042,0.0895205,0.49976125,186.5542,02/06.0/2016,2000,g  8.5,6.0
# From MPC 94676
143P/Kowal-Mrkos,e,4.6942,245.3051,320.8287,4.294532,0.1107466,0.40988344,269.0303,02/06.0/2016,2000,g 13.5,2.0
# From MPC 84321
144P/Kushida,e,4.1147,245.4924,216.1435,3.857814,0.1300745,0.62895151,333.0796,02/06.0/2016,2000,g  8.5,8.0
# From MPC 75720
145P/Shoemaker-Levy,e,11.2602,26.8183,10.4089,4.144001,0.1168353,0.54072476,293.0553,02/06.0/2016,2000,g 13.5,4.0
# From MPC 75720
146P/Shoemaker-LINEAR,e,23.0733,53.4565,316.9852,4.039754,0.1213869,0.64599529,342.3815,02/06.0/2016,2000,g 15.0,4.0
# From MPC 75720
147P/Kushida-Muramatsu,e,2.3689,93.7309,347.0652,3.800020,0.1330532,0.27722070,357.0952,02/06.0/2016,2000,g 14.0,4.0
# From MPC 89730
148P/Anderson-LINEAR,e,3.6817,89.7630,6.6943,3.675286,0.1398838,0.53973281,33.1849,02/06.0/2016,2000,g 16.0,2.0
# From MPC 75720
149P/Mueller,e,29.7652,145.2650,43.5974,4.321430,0.1097142,0.38973334,238.5947,02/06.0/2016,2000,g  8.0,8.0
# From MPC 75720
150P/LONEOS,e,18.5071,272.4295,245.6792,3.883097,0.1288062,0.54682831,338.1096,02/06.0/2016,2000,g 13.5,4.0
# From MPC 95214
151P/Helin,e,4.7196,143.1553,216.2589,5.780638,0.0709154,0.57206746,8.5770,02/06.0/2016,2000,g 10.0,6.0
# From MPC 79346
152P/Helin-Lawrence,e,9.8702,91.8832,163.5327,4.491061,0.1035573,0.30766815,135.3903,02/06.0/2016,2000,g 11.5,4.0
# From MPC 46101
153P/Ikeya-Zhang,e,28.0948,93.3940,34.6656,51.19512,0.0026907,0.99014893,0.0000,03/22.6542/2002,2000,g  7.0,4.0
# From MPC 87068
154P/Brewington,e,17.9183,343.4282,48.2339,4.844553,0.0924323,0.67491933,72.4828,02/06.0/2016,2000,g  2.5,12.0
# From MPC 75720
155P/Shoemaker,e,6.4008,97.2639,14.7075,6.583796,0.0583431,0.72720984,279.6343,02/06.0/2016,2000,g 10.0,4.8
# From MPC 92985
156P/Russell-LINEAR,e,20.8411,38.7434,357.8950,3.592235,0.1447628,0.56043064,95.5416,02/06.0/2016,2000,g 15.5,2.0
# From MPC 95214
157P/Tritton,e,7.2850,300.0011,148.8903,3.408730,0.1566084,0.60159203,340.3687,02/06.0/2016,2000,g 10.0,4.0
# From MPC 76027
158P/Kowal-LINEAR,e,7.9063,137.2751,239.9720,4.738181,0.0955623,0.03022494,110.7208,02/06.0/2016,2000,g  9.0,4.0
# From MPC 75721
159P/LONEOS,e,23.4599,55.0445,4.8623,5.860697,0.0694673,0.38184503,301.8340,02/06.0/2016,2000,g 10.0,4.0
# From MPC 80901
160P/LINEAR,e,16.9749,335.3102,12.0178,3.729360,0.1368524,0.54217899,169.4044,02/06.0/2016,2000,g 15.5,2.0
# From MPC 75721
161P/Hartley-IRAS,e,95.5786,1.2313,46.9603,7.720349,0.0459461,0.83566804,178.4752,02/06.0/2016,2000,g  8.5,6.0
# From MPC 92985
162P/Siding Spring,e,27.7864,31.2089,356.4269,3.056635,0.1844331,0.59513703,38.5464,02/06.0/2016,2000,g 12.0,4.0
# From MPC 78188
163P/NEAT,e,12.7159,102.1104,349.8045,3.766885,0.1348126,0.45252899,187.9808,02/06.0/2016,2000,g 14.5,4.0
# From MPC 94676
164P/Christensen,e,16.2583,88.3124,325.9888,3.658818,0.1408292,0.53979223,240.9357,02/06.0/2016,2000,g 11.0,4.0
# From MPC 75721
165P/LINEAR,e,15.9043,0.5080,126.3510,17.89517,0.0130197,0.61814747,74.3661,02/06.0/2016,2000,g 11.5,2.0
# From MPC 75722
166P/NEAT,e,15.3607,64.4729,322.1930,13.90040,0.0190179,0.37974799,95.4429,02/06.0/2016,2000,g  5.5,4.0
# From MPC 75722
167P/CINEOS,e,19.1035,295.8491,343.5220,16.15218,0.0151830,0.27140131,82.2995,02/06.0/2016,2000,g  9.5,2.0
# From MPC 82322
168P/Hergenrother,e,22.0061,356.4033,13.7098,3.611201,0.1436239,0.61178527,175.4615,02/06.0/2016,2000,g 15.5,4.0
# From MPC 94676
169P/NEAT,e,11.2982,176.1197,218.0156,2.604228,0.2345231,0.76705415,169.0410,02/06.0/2016,2000,g 16.0,2.0
# From MPC 89012
170P/Christensen,e,10.1279,142.9199,225.8219,4.197597,0.1146048,0.30412086,58.0052,02/06.0/2016,2000,g 12.0,4.0
# From MPC 79024
171P/Spahr,e,21.9457,101.7132,347.2134,3.555925,0.1469857,0.50239124,202.3549,02/06.0/2016,2000,g 13.5,4.0
# From MPC 93588
